CCSDS_OMM_VERS = 2.0
CREATION_DATE  = 
ORIGINATOR     = 

OBJECT_NAME    = DELTA 2 R/B(1)
OBJECT_ID      = 1990-008B
CENTER_NAME    = EARTH
REF_FRAME      = TEME
TIME_SYSTEM    = UTC
MEAN_ELEMENT_THEORY = SGP/SGP4

EPOCH          = 2026-03-04T18:05:34.724832
MEAN_MOTION    = 15.55228084
ECCENTRICITY   = .0086505
INCLINATION    = 35.6042
RA_OF_ASC_NODE = 207.2295
ARG_OF_PERICENTER = 213.0642
MEAN_ANOMALY   = 146.4665

EPHEMERIS_TYPE = 0
CLASSIFICATION_TYPE = U
NORAD_CAT_ID   = 20453
ELEMENT_SET_NO = 999
REV_AT_EPOCH   = 92536
BSTAR          = .1041E-2
MEAN_MOTION_DOT = .86998E-3
MEAN_MOTION_DDOT = 0

CCSDS_OMM_VERS = 2.0
CREATION_DATE  = 
ORIGINATOR     = 

OBJECT_NAME    = COSMOS 2058
OBJECT_ID      = 1990-010A
CENTER_NAME    = EARTH
REF_FRAME      = TEME
TIME_SYSTEM    = UTC
MEAN_ELEMENT_THEORY = SGP/SGP4

EPOCH          = 2026-03-04T21:08:39.301152
MEAN_MOTION    = 15.11269021
ECCENTRICITY   = .0009745
INCLINATION    = 82.4668
RA_OF_ASC_NODE = 52.1652
ARG_OF_PERICENTER = 359.3865
MEAN_ANOMALY   = 0.7351

EPHEMERIS_TYPE = 0
CLASSIFICATION_TYPE = U
NORAD_CAT_ID   = 20465
ELEMENT_SET_NO = 999
REV_AT_EPOCH   = 94151
BSTAR          = .32708E-3
MEAN_MOTION_DOT = .5535E-4
MEAN_MOTION_DDOT = 0

CCSDS_OMM_VERS = 2.0
CREATION_DATE  = 
ORIGINATOR     = 

OBJECT_NAME    = SL-14 R/B
OBJECT_ID      = 1990-010B
CENTER_NAME    = EARTH
REF_FRAME      = TEME
TIME_SYSTEM    = UTC
MEAN_ELEMENT_THEORY = SGP/SGP4

EPOCH          = 2026-03-05T00:47:37.965984
MEAN_MOTION    = 14.83564156
ECCENTRICITY   = .0018823
INCLINATION    = 82.4991
RA_OF_ASC_NODE = 271.7641
ARG_OF_PERICENTER = 318.6191
MEAN_ANOMALY   = 41.3597

EPHEMERIS_TYPE = 0
CLASSIFICATION_TYPE = U
NORAD_CAT_ID   = 20466
ELEMENT_SET_NO = 999
REV_AT_EPOCH   = 92779
BSTAR          = .59686E-4
MEAN_MOTION_DOT = .516E-5
MEAN_MOTION_DDOT = 0

CCSDS_OMM_VERS = 2.0
CREATION_DATE  = 
ORIGINATOR     = 

OBJECT_NAME    = SL-14 R/B
OBJECT_ID      = 1990-018B
CENTER_NAME    = EARTH
REF_FRAME      = TEME
TIME_SYSTEM    = UTC
MEAN_ELEMENT_THEORY = SGP/SGP4

EPOCH          = 2026-03-05T04:21:18.609696
MEAN_MOTION    = 14.82138959
ECCENTRICITY   = .001762
INCLINATION    = 82.5194
RA_OF_ASC_NODE = 227.3036
ARG_OF_PERICENTER = 105.7341
MEAN_ANOMALY   = 254.5819

EPHEMERIS_TYPE = 0
CLASSIFICATION_TYPE = U
NORAD_CAT_ID   = 20511
ELEMENT_SET_NO = 999
REV_AT_EPOCH   = 92191
BSTAR          = .8273E-4
MEAN_MOTION_DOT = .684E-5
MEAN_MOTION_DDOT = 0

CCSDS_OMM_VERS = 2.0
CREATION_DATE  = 
ORIGINATOR     = 

OBJECT_NAME    = HST
OBJECT_ID      = 1990-037B
CENTER_NAME    = EARTH
REF_FRAME      = TEME
TIME_SYSTEM    = UTC
MEAN_ELEMENT_THEORY = SGP/SGP4

EPOCH          = 2026-03-05T02:44:22.472736
MEAN_MOTION    = 15.29397580
ECCENTRICITY   = .0001765
INCLINATION    = 28.4704
RA_OF_ASC_NODE = 71.2102
ARG_OF_PERICENTER = 80.5855
MEAN_ANOMALY   = 279.4940

EPHEMERIS_TYPE = 0
CLASSIFICATION_TYPE = U
NORAD_CAT_ID   = 20580
ELEMENT_SET_NO = 999
REV_AT_EPOCH   = 77261
BSTAR          = .32209E-3
MEAN_MOTION_DOT = .9685E-4
MEAN_MOTION_DDOT = 0

CCSDS_OMM_VERS = 2.0
CREATION_DATE  = 
ORIGINATOR     = 

OBJECT_NAME    = SL-16 R/B
OBJECT_ID      = 1990-046B
CENTER_NAME    = EARTH
REF_FRAME      = TEME
TIME_SYSTEM    = UTC
MEAN_ELEMENT_THEORY = SGP/SGP4

EPOCH          = 2026-03-05T02:27:12.205440
MEAN_MOTION    = 14.15014108
ECCENTRICITY   = .0016178
INCLINATION    = 70.9998
RA_OF_ASC_NODE = 307.5493
ARG_OF_PERICENTER = 305.7503
MEAN_ANOMALY   = 54.2114

EPHEMERIS_TYPE = 0
CLASSIFICATION_TYPE = U
NORAD_CAT_ID   = 20625
ELEMENT_SET_NO = 999
REV_AT_EPOCH   = 84774
BSTAR          = -.83727E-4
MEAN_MOTION_DOT = -.21E-5
MEAN_MOTION_DDOT = 0

CCSDS_OMM_VERS = 2.0
CREATION_DATE  = 
ORIGINATOR     = 

OBJECT_NAME    = COSMOS 2084
OBJECT_ID      = 1990-055A
CENTER_NAME    = EARTH
REF_FRAME      = TEME
TIME_SYSTEM    = UTC
MEAN_ELEMENT_THEORY = SGP/SGP4

EPOCH          = 2026-03-05T03:20:36.974112
MEAN_MOTION    = 15.05617629
ECCENTRICITY   = .0017805
INCLINATION    = 62.7927
RA_OF_ASC_NODE = 351.0970
ARG_OF_PERICENTER = 188.8721
MEAN_ANOMALY   = 171.2068

EPHEMERIS_TYPE = 0
CLASSIFICATION_TYPE = U
NORAD_CAT_ID   = 20663
ELEMENT_SET_NO = 999
REV_AT_EPOCH   = 93563
BSTAR          = .26678E-3
MEAN_MOTION_DOT = .3679E-4
MEAN_MOTION_DDOT = 0

CCSDS_OMM_VERS = 2.0
CREATION_DATE  = 
ORIGINATOR     = 

OBJECT_NAME    = SL-6 R/B(2)
OBJECT_ID      = 1990-055D
CENTER_NAME    = EARTH
REF_FRAME      = TEME
TIME_SYSTEM    = UTC
MEAN_ELEMENT_THEORY = SGP/SGP4

EPOCH          = 2026-03-04T23:35:07.685376
MEAN_MOTION    = 15.03567239
ECCENTRICITY   = .0024029
INCLINATION    = 62.7816
RA_OF_ASC_NODE = 269.8581
ARG_OF_PERICENTER = 345.8711
MEAN_ANOMALY   = 14.1713

EPHEMERIS_TYPE = 0
CLASSIFICATION_TYPE = U
NORAD_CAT_ID   = 20666
ELEMENT_SET_NO = 999
REV_AT_EPOCH   = 93748
BSTAR          = .1991E-3
MEAN_MOTION_DOT = .2548E-4
MEAN_MOTION_DDOT = 0

CCSDS_OMM_VERS = 2.0
CREATION_DATE  = 
ORIGINATOR     = 

OBJECT_NAME    = SL-8 R/B
OBJECT_ID      = 1990-078B
CENTER_NAME    = EARTH
REF_FRAME      = TEME
TIME_SYSTEM    = UTC
MEAN_ELEMENT_THEORY = SGP/SGP4

EPOCH          = 2026-03-05T00:08:39.938784
MEAN_MOTION    = 14.88877115
ECCENTRICITY   = .036336
INCLINATION    = 82.8993
RA_OF_ASC_NODE = 255.5236
ARG_OF_PERICENTER = 29.7298
MEAN_ANOMALY   = 332.4032

EPHEMERIS_TYPE = 0
CLASSIFICATION_TYPE = U
NORAD_CAT_ID   = 20775
ELEMENT_SET_NO = 999
REV_AT_EPOCH   = 80860
BSTAR          = .58268E-3
MEAN_MOTION_DOT = .1981E-3
MEAN_MOTION_DDOT = 0

CCSDS_OMM_VERS = 2.0
CREATION_DATE  = 
ORIGINATOR     = 

OBJECT_NAME    = SL-8 R/B
OBJECT_ID      = 1991-006B
CENTER_NAME    = EARTH
REF_FRAME      = TEME
TIME_SYSTEM    = UTC
MEAN_ELEMENT_THEORY = SGP/SGP4

EPOCH          = 2026-03-04T18:41:01.307040
MEAN_MOTION    = 13.77493594
ECCENTRICITY   = .0023339
INCLINATION    = 82.9464
RA_OF_ASC_NODE = 173.6966
ARG_OF_PERICENTER = 51.5962
MEAN_ANOMALY   = 112.6575

EPHEMERIS_TYPE = 0
CLASSIFICATION_TYPE = U
NORAD_CAT_ID   = 21088
ELEMENT_SET_NO = 999
REV_AT_EPOCH   = 76339
BSTAR          = .63373E-4
MEAN_MOTION_DOT = .79E-6
MEAN_MOTION_DDOT = 0

CCSDS_OMM_VERS = 2.0
CREATION_DATE  = 
ORIGINATOR     = 

OBJECT_NAME    = OKEAN-3
OBJECT_ID      = 1991-039A
CENTER_NAME    = EARTH
REF_FRAME      = TEME
TIME_SYSTEM    = UTC
MEAN_ELEMENT_THEORY = SGP/SGP4

EPOCH          = 2026-03-05T03:46:27.181056
MEAN_MOTION    = 15.04764418
ECCENTRICITY   = .0014227
INCLINATION    = 82.5197
RA_OF_ASC_NODE = 341.2336
ARG_OF_PERICENTER = 354.9288
MEAN_ANOMALY   = 5.1792

EPHEMERIS_TYPE = 0
CLASSIFICATION_TYPE = U
NORAD_CAT_ID   = 21397
ELEMENT_SET_NO = 999
REV_AT_EPOCH   = 86435
BSTAR          = .29126E-3
MEAN_MOTION_DOT = .4141E-4
MEAN_MOTION_DDOT = 0

CCSDS_OMM_VERS = 2.0
CREATION_DATE  = 
ORIGINATOR     = 

OBJECT_NAME    = COSMOS 2151
OBJECT_ID      = 1991-042A
CENTER_NAME    = EARTH
REF_FRAME      = TEME
TIME_SYSTEM    = UTC
MEAN_ELEMENT_THEORY = SGP/SGP4

EPOCH          = 2026-03-05T03:32:20.768640
MEAN_MOTION    = 15.00084038
ECCENTRICITY   = .0014076
INCLINATION    = 82.4928
RA_OF_ASC_NODE = 88.0589
ARG_OF_PERICENTER = 77.2404
MEAN_ANOMALY   = 283.0392

EPHEMERIS_TYPE = 0
CLASSIFICATION_TYPE = U
NORAD_CAT_ID   = 21422
ELEMENT_SET_NO = 999
REV_AT_EPOCH   = 86251
BSTAR          = .20807E-3
MEAN_MOTION_DOT = .2624E-4
MEAN_MOTION_DDOT = 0

