DELTA 2 R/B(1)          
1 20453U 90008B   26063.75387413  .00086998  00000+0  10410-2 0  9993
2 20453  35.6042 207.2295 0086505 213.0642 146.4665 15.55228084925362
COSMOS 2058             
1 20465U 90010A   26063.88101043  .00005535  00000+0  32708-3 0  9999
2 20465  82.4668  52.1652 0009745 359.3865   0.7351 15.11269021941512
SL-14 R/B               
1 20466U 90010B   26064.03307831  .00000516  00000+0  59686-4 0  9990
2 20466  82.4991 271.7641 0018823 318.6191  41.3597 14.83564156927798
SL-14 R/B               
1 20511U 90018B   26064.18146539  .00000684  00000+0  82730-4 0  9993
2 20511  82.5194 227.3036 0017620 105.7341 254.5819 14.82138959921916
HST                     
1 20580U 90037B   26064.11414899  .00009685  00000+0  32209-3 0  9995
2 20580  28.4704  71.2102 0001765  80.5855 279.4940 15.29397580772612
SL-16 R/B               
1 20625U 90046B   26064.10222460 -.00000210  00000+0 -83727-4 0  9994
2 20625  70.9998 307.5493 0016178 305.7503  54.2114 14.15014108847748
COSMOS 2084             
1 20663U 90055A   26064.13931683  .00003679  00000+0  26678-3 0  9994
2 20663  62.7927 351.0970 0017805 188.8721 171.2068 15.05617629935636
SL-6 R/B(2)             
1 20666U 90055D   26063.98272784  .00002548  00000+0  19910-3 0  9994
2 20666  62.7816 269.8581 0024029 345.8711  14.1713 15.03567239937486
SL-8 R/B                
1 20775U 90078B   26064.00601781  .00019810  00000+0  58268-3 0  9996
2 20775  82.8993 255.5236 0363360  29.7298 332.4032 14.88877115808607
SL-8 R/B                
1 21088U 91006B   26063.77848735  .00000079  00000+0  63373-4 0  9992
2 21088  82.9464 173.6966 0023339  51.5962 112.6575 13.77493594763397
OKEAN-3                 
1 21397U 91039A   26064.15725904  .00004141  00000+0  29126-3 0  9997
2 21397  82.5197 341.2336 0014227 354.9288   5.1792 15.04764418864353
COSMOS 2151             
1 21422U 91042A   26064.14746260  .00002624  00000+0  20807-3 0  9998
2 21422  82.4928  88.0589 0014076  77.2404 283.0392 15.00084038862514
